ONEWEB-0201             
1 48241U 21031AH  23166.66441508 -.00000206  00000+0 -58911-3 0  9994
2 48241  87.9030 148.1437 0001937  89.0067 271.1284 13.14505258104190
ONEWEB-0207             
1 48242U 21031AJ  23166.63904208  .00000304  00000+0  78605-3 0  9992
2 48242  87.9030 148.1162 0002152  93.1108 267.0268 13.14505994104102
ONEWEB-0208             
1 48243U 21031AK  23166.69295023  .00000046  00000+0  90363-4 0  9996
2 48243  87.9026 148.1248 0001736  89.0603 271.0725 13.14504449104123
ONEWEB-0200             
1 48244U 21031AL  23166.65699835 -.00000125  00000+0 -37040-3 0  9994
2 48244  87.9027 148.1217 0001727  88.3230 271.8098 13.14500254104041
ONEWEB-0217             
1 48245U 21031AM  23166.67392825 -.00000229  00000+0 -65106-3 0  9995
2 48245  87.9029 148.0988 0001594  86.6363 273.4949 13.14504528103992
ONEWEB-0211             
1 48767U 21045A   23166.36038781 -.00000037  00000+0 -13316-3 0  9996
2 48767  87.9017 117.7916 0001984  80.4678 279.6676 13.15551406100075
ONEWEB-0223             
1 48768U 21045B   23166.38153154  .00000101  00000+0  23514-3 0  9992
2 48768  87.9014 117.7944 0001864  69.1087 291.0243 13.15549042100069
ONEWEB-0230             
1 48769U 21045C   23166.43011286 -.00000119  00000+0 -35080-3 0  9990
2 48769  87.9034 117.8331 0002155  80.5093 279.6281 13.15543656100330
ONEWEB-0237             
1 48770U 21045D   23166.41954920 -.00000262  00000+0 -72991-3 0  9992
2 48770  87.9018 117.7655 0002174  64.9377 295.1979 13.15549127100059
ONEWEB-0235             
1 48771U 21045E   23166.39210339  .00000171  00000+0  41905-3 0  9997
2 48771  87.9015 117.8043 0002378  58.1660 301.9701 13.15549550100043
ONEWEB-0242             
1 48772U 21045F   23166.38576051  .00000179  00000+0  44157-3 0  9993
2 48772  87.9018 117.7972 0002253  74.9862 285.1518 13.15548547100087
ONEWEB-0241             
1 48773U 21045G   23166.37306516 -.00000315  00000+0 -87076-3 0  9991
2 48773  87.9026 117.8116 0002031  72.9377 287.1976 13.15547649 99990
ONEWEB-0243             
1 48774U 21045H   23166.78506481  .00000136  00000+0  32707-3 0  9990
2 48774  87.9016 117.6960 0002321  67.3402 292.7974 13.15546625100079
ONEWEB-0222             
1 48775U 21045J   23166.39420173  .00000192  00000+0  47714-3 0  9997
2 48775  87.9016 117.8103 0001923  72.3784 287.7556 13.15550588100069
ONEWEB-0244             
1 48776U 21045K   23166.33926664 -.00000044  00000+0 -15047-3 0  9990
2 48776  87.9016 117.8064 0002470  75.5162 284.6242 13.15544131100626
ONEWEB-0247             
1 48777U 21045L   23166.79138163  .00000049  00000+0  96334-4 0  9992
2 48777  87.9030 117.7164 0002137  61.7793 298.3553 13.15551004100129
ONEWEB-0245             
1 48778U 21045M   23166.78716059  .00000130  00000+0  31021-3 0  9990
2 48778  87.9018 117.7426 0001712  79.7430 280.3893 13.15547396100095
ONEWEB-0229             
1 48779U 21045N   23166.62869481  .00000057  00000+0  11771-3 0  9990
2 48779  87.9017 117.7627 0002320  75.7633 284.3755 13.15551509100109
ONEWEB-0228             
1 48780U 21045P   23166.41427648  .00000001  00000+0 -32017-4 0  9991
2 48780  87.9017 117.7878 0002217  76.1479 283.9898 13.15550293 99993
ONEWEB-0232             
1 48781U 21045Q   23166.78925678  .00000018  00000+0  13883-4 0  9995
2 48781  87.9045 117.7864 0002158  84.4869 275.6508 13.15554252100368
ONEWEB-0231             
1 48782U 21045R   23166.38787689  .00000143  00000+0  34550-3 0  9992
2 48782  87.9028 117.8063 0002131  70.6789 289.4571 13.15549481100003
ONEWEB-0234             
1 48783U 21045S   23166.41321447 -.00000038  00000+0 -13592-3 0  9991
2 48783  87.9018 117.7932 0001798  85.6277 274.5059 13.15549894100142
ONEWEB-0238             
1 48784U 21045T   23166.42482570 -.00000043  00000+0 -14791-3 0  9996
2 48784  87.9016 117.8009 0001930  84.7904 275.3446 13.15546693100044
ONEWEB-0240             
1 48785U 21045U   23166.37096679  .00000008  00000+0 -11927-4 0  9991
2 48785  87.9015 117.7866 0001685  69.4767 290.6544 13.15548902100064
ONEWEB-0246             
1 48786U 21045V   23166.36672141  .00000011  00000+0 -46383-5 0  9994
2 48786  87.9017 117.7874 0002166  66.4643 293.6715 13.15545054 99932
ONEWEB-0210             
1 48787U 21045W   23166.34137672 -.00000035  00000+0 -12661-3 0  9995
2 48787  87.9018 117.8022 0002737  66.4279 293.7139 13.15550680 99975
ONEWEB-0214             
1 48788U 21045X   23166.42799217 -.00000369  00000+0 -10148-2 0  9991
2 48788  87.9015 117.7738 0002851  70.1468 289.9970 13.15549896 99950
ONEWEB-0221             
1 48789U 21045Y   23166.43434589 -.00000110  00000+0 -32725-3 0  9991
2 48789  87.9019 117.7805 0001962  73.2669 286.8676 13.15546516100047
ONEWEB-0213             
1 48790U 21045Z   23166.42166262 -.00000118  00000+0 -34830-3 0  9999
2 48790  87.9017 117.8024 0002158  67.4569 292.6789 13.15550364100106
ONEWEB-0212             
1 48791U 21045AA  23166.63082020  .00000085  00000+0  19244-3 0  9995
2 48791  87.9019 117.7414 0002072  90.0387 270.0980 13.15550605100129
ONEWEB-0227             
1 48792U 21045AB  23166.62448520 -.00001741  00000+0 -46588-2 0  9998
2 48792  87.9019 117.7564 0002199  70.2323 289.9044 13.15556369100073
ONEWEB-0226             
1 48793U 21045AC  23166.38999216 -.00000289  00000+0 -80172-3 0  9999
2 48793  87.9037 117.8105 0002610  66.7470 293.3935 13.15548250100019
ONEWEB-0224             
1 48794U 21045AD  23166.35616739 -.00000253  00000+0 -70658-3 0  9992
2 48794  87.9028 117.8113 0001489  92.1169 268.0132 13.15548616 99932
ONEWEB-0233             
1 48795U 21045AE  23166.42574252 -.00000032  00000+0 -12028-3 0  9996
2 48795  87.9042 117.8788 0002013  80.5484 279.5873 13.15546068 99952
ONEWEB-0190             
1 48796U 21045AF  23166.34772204 -.00000121  00000+0 -35432-3 0  9998
2 48796  87.9014 117.8211 0002369  49.2701 310.8634 13.15545624100023
ONEWEB-0236             
1 48797U 21045AG  23166.36461413 -.00000006  00000+0 -49605-4 0  9998
2 48797  87.9013 117.7884 0001997  80.5621 279.5735 13.15550750 99917
ONEWEB-0248             
1 48798U 21045AH  23166.37730852  .00000139  00000+0  33397-3 0  9991
2 48798  87.9016 117.8001 0001531  58.0879 302.0400 13.15546613100076
ONEWEB-0225             
1 48799U 21045AJ  23166.62660644  .00000095  00000+0  21906-3 0  9995
2 48799  87.9012 117.7663 0002052  63.0666 297.0674 13.15549543100111
ONEWEB-0215             
1 48800U 21045AK  23166.36885905 -.00000014  00000+0 -70307-4 0  9991
2 48800  87.9015 117.7908 0001862  51.0507 309.0789 13.15549492 99951
ONEWEB-0216             
1 48801U 21045AL  23166.37942797  .00000138  00000+0  33281-3 0  9990
2 48801  87.9016 117.8260 0002473  76.9024 283.2382 13.15547675 99968
ONEWEB-0239             
1 48802U 21045AM  23166.38362045  .00000158  00000+0  38517-3 0  9993
2 48802  87.9018 117.7755 0001674  50.4524 309.6754 13.15550822100005
ONEWEB-0249             
1 48967U 21060A   23166.73201583 -.00000058  00000+0 -18663-3 0  9991
2 48967  87.9025  87.2492 0002085  81.2508 278.8859 13.16593566 95206
ONEWEB-0250             
1 48968U 21060B   23166.73621555 -.00000427  00000+0 -11501-2 0  9990
2 48968  87.9028  87.2571 0001782  68.3716 291.7605 13.16593399 96475
ONEWEB-0252             
1 48970U 21060D   23166.76367024  .00000036  00000+0  59393-4 0  9991
2 48970  87.9037  87.2526 0002235  76.7540 283.3840 13.16595380 95255
ONEWEB-0253             
1 48971U 21060E   23166.75310089 -.00000431  00000+0 -11605-2 0  9993
2 48971  87.9139  87.2681 0002149  65.9204 294.2152 13.16593014 95183
ONEWEB-0254             
1 48972U 21060F   23166.30557117  .00000154  00000+0  36851-3 0  9991
2 48972  87.9037  87.3324 0001975  67.2488 292.8851 13.16597225 95123
ONEWEB-0255             
1 48973U 21060G   23166.72357121 -.00000020  00000+0 -86839-4 0  9997
2 48973  87.9026  87.2950 0002020  78.3677 281.7681 13.16594355 95254
ONEWEB-0256             
1 48974U 21060H   23166.74890647 -.00000011  00000+0 -62040-4 0  9993
2 48974  87.9041  87.2815 0002350  78.8566 281.2829 13.16594905 96510
ONEWEB-0257             
1 48975U 21060J   23166.70666985  .00000026  00000+0  34997-4 0  9990
2 48975  87.9021  87.2776 0002243  74.6953 285.4426 13.16596324 95177
ONEWEB-0258             
1 48976U 21060K   23166.70877178 -.00000119  00000+0 -34375-3 0  9993
2 48976  87.9029  87.2997 0001884  76.7846 283.3495 13.16593305 95185
ONEWEB-0259             
1 48977U 21060L   23166.77845357  .00000110  00000+0  25295-3 0  9995
2 48977  87.9031  87.2688 0001687  72.4163 287.7152 13.16595475 95225
ONEWEB-0260             
1 48978U 21060M   23166.77211190  .00000059  00000+0  11945-3 0  9997
2 48978  87.9130  87.2366 0002851  74.5109 285.6337 13.16596035 95209
ONEWEB-0261             
1 48979U 21060N   23166.73833859 -.00000078  00000+0 -23866-3 0  9994
2 48979  87.9020  87.2543 0002215  67.8767 292.2599 13.16595332 96556
ONEWEB-0262             
1 48980U 21060P   23166.79532434  .00000034  00000+0  56278-4 0  9991
2 48980  87.9039  87.2464 0001617  63.4547 296.6749 13.16597243 95224
ONEWEB-0263             
1 48981U 21060Q   23166.75101847 -.00000001  00000+0 -35509-4 0  9998
2 48981  87.9042  87.2679 0001947  60.1149 300.0175 13.16595788 95185
ONEWEB-0264             
1 48982U 21060R   23166.71196172 -.00000034  00000+0 -12303-3 0  9992
2 48982  87.9054  87.2674 0002011  77.4772 282.6584 13.16595797 95189
ONEWEB-0266             
1 48984U 21060T   23166.73413330  .00000142  00000+0  33793-3 0  9998
2 48984  87.9035  87.2645 0001914  80.5741 279.5607 13.16593524 95176
ONEWEB-0267             
1 48985U 21060U   23166.74468225 -.00000014  00000+0 -69794-4 0  9994
2 48985  87.9036  87.2626 0002292  65.8682 294.2688 13.16593181 95180
ONEWEB-0268             
1 48986U 21060V   23166.71299642  .00000053  00000+0  10567-3 0  9991
2 48986  87.9037  87.2717 0002294  81.7968 278.3423 13.16598862 95449
